[{"OBJECT_NAME":"STARLINK-30468","OBJECT_ID":"2023-147P","EPOCH":"2026-03-09T03:02:52.335168","MEAN_MOTION":15.02566099,"ECCENTRICITY":8.004e-5,"INCLINATION":43.0042,"RA_OF_ASC_NODE":329.0906,"ARG_OF_PERICENTER":274.4003,"MEAN_ANOMALY":85.6748,"EPHEMERIS_TYPE":0,"CLASSIFICATION_TYPE":"U","NORAD_CAT_ID":57926,"ELEMENT_SET_NO":999,"REV_AT_EPOCH":13650,"BSTAR":0.00033508835,"MEAN_MOTION_DOT":4.329e-5,"MEAN_MOTION_DDOT":0},{"OBJECT_NAME":"SEDNA-1","OBJECT_ID":"2024-149DS","EPOCH":"2026-03-09T18:22:48.434304","MEAN_MOTION":15.05597965,"ECCENTRICITY":0.00083444,"INCLINATION":97.6673,"RA_OF_ASC_NODE":149.7617,"ARG_OF_PERICENTER":330.8481,"MEAN_ANOMALY":29.2278,"EPHEMERIS_TYPE":0,"CLASSIFICATION_TYPE":"U","NORAD_CAT_ID":60580,"ELEMENT_SET_NO":999,"REV_AT_EPOCH":8542,"BSTAR":0.00060833619,"MEAN_MOTION_DOT":8.721e-5,"MEAN_MOTION_DDOT":0}]
